{
  "type": "FeatureCollection",
  "features": [
    {
      "type": "Feature",
      "properties": {
        "norad_id": 38857,
        "name": "GSAT0103 (GALILEO-FM3)",
        "group": "gnss",
        "lat": -29.333559492767005,
        "lon": 83.81924847136128,
        "alt_km": 23220.79331671181,
        "timestamp": "2025-12-24T14:43:29.244652+00:00",
        "meta_object_name": "GSAT0103 (GALILEO-FM3)",
        "meta_object_id": "2012-055A",
        "meta_epoch": "2025-12-22T21:54:43.252704",
        "meta_mean_motion": 1.70473351,
        "meta_eccentricity": 0.0002995,
        "meta_inclination": 55.698,
        "meta_ra_of_asc_node": 106.3873,
        "meta_arg_of_pericenter": 269.858,
        "meta_mean_anomaly": 90.0891,
        "meta_ephemeris_type": 0,
        "meta_classification_type": "U",
        "meta_norad_cat_id": 38857,
        "meta_element_set_no": 999,
        "meta_rev_at_epoch": 8200,
        "meta_bstar": 0,
        "meta_mean_motion_dot": 1e-07,
        "meta_mean_motion_ddot": 0,
        "tle_line1": "1 38857U 12055A   25356.91300061  .00000010  00000+0  00000+0 0  9994",
        "tle_line2": "2 38857  55.6980 106.3873 0002995 269.8580  90.0891  1.70473351 82005"
      },
      "geometry": {
        "type": "Point",
        "coordinates": [
          83.81924847136128,
          -29.333559492767005
        ]
      }
    },
    {
      "type": "Feature",
      "properties": {
        "norad_id": 38953,
        "name": "BEIDOU-2 G6 (C02)",
        "group": "gnss",
        "lat": -2.3970646178151696,
        "lon": 38.2625821715332,
        "alt_km": 35757.500650980415,
        "timestamp": "2025-12-24T14:43:29.244668+00:00",
        "meta_object_name": "BEIDOU-2 G6 (C02)",
        "meta_object_id": "2012-059A",
        "meta_epoch": "2025-12-23T23:07:51.482784",
        "meta_mean_motion": 1.00267756,
        "meta_eccentricity": 0.0008393,
        "meta_inclination": 3.9757,
        "meta_ra_of_asc_node": 75.399,
        "meta_arg_of_pericenter": 291.3316,
        "meta_mean_anomaly": 156.8813,
        "meta_ephemeris_type": 0,
        "meta_classification_type": "U",
        "meta_norad_cat_id": 38953,
        "meta_element_set_no": 999,
        "meta_rev_at_epoch": 4815,
        "meta_bstar": 0,
        "meta_mean_motion_dot": -1.54e-06,
        "meta_mean_motion_ddot": 0,
        "tle_line1": "1 38953U 12059A   25357.96379031 -.00000154  00000+0  00000+0 0  9994",
        "tle_line2": "2 38953   3.9757  75.3990 0008393 291.3316 156.8813  1.00267756 48156"
      },
      "geometry": {
        "type": "Point",
        "coordinates": [
          38.2625821715332,
          -2.3970646178151696
        ]
      }
    },
    {
      "type": "Feature",
      "properties": {
        "norad_id": 38977,
        "name": "LUCH 5B (SDCM/PRN 125)",
        "group": "gnss",
        "lat": -9.268882471886293,
        "lon": -62.344070947699464,
        "alt_km": 35769.37822807166,
        "timestamp": "2025-12-24T14:43:29.244681+00:00",
        "meta_object_name": "LUCH 5B (SDCM/PRN 125)",
        "meta_object_id": "2012-061A",
        "meta_epoch": "2025-12-23T23:19:30.865728",
        "meta_mean_motion": 1.00271916,
        "meta_eccentricity": 0.0006602,
        "meta_inclination": 10.1038,
        "meta_ra_of_asc_node": 51.5975,
        "meta_arg_of_pericenter": 196.0445,
        "meta_mean_anomaly": 178.6636,
        "meta_ephemeris_type": 0,
        "meta_classification_type": "U",
        "meta_norad_cat_id": 38977,
        "meta_element_set_no": 999,
        "meta_rev_at_epoch": 4785,
        "meta_bstar": 0,
        "meta_mean_motion_dot": -1.21e-06,
        "meta_mean_motion_ddot": 0,
        "tle_line1": "1 38977U 12061A   25357.97188502 -.00000121  00000+0  00000+0 0  9999",
        "tle_line2": "2 38977  10.1038  51.5975 0006602 196.0445 178.6636  1.00271916 47852"
      },
      "geometry": {
        "type": "Point",
        "coordinates": [
          -62.344070947699464,
          -9.268882471886293
        ]
      }
    },
    {
      "type": "Feature",
      "properties": {
        "norad_id": 39155,
        "name": "COSMOS 2485 (747)",
        "group": "gnss",
        "lat": -22.721615268491718,
        "lon": -89.43431101453612,
        "alt_km": 19075.3979491039,
        "timestamp": "2025-12-24T14:43:29.244694+00:00",
        "meta_object_name": "COSMOS 2485 (747)",
        "meta_object_id": "2013-019A",
        "meta_epoch": "2025-12-23T21:02:08.451744",
        "meta_mean_motion": 2.13103232,
        "meta_eccentricity": 0.00250068,
        "meta_inclination": 65.319,
        "meta_ra_of_asc_node": 79.4928,
        "meta_arg_of_pericenter": 230.5113,
        "meta_mean_anomaly": 129.3147,
        "meta_ephemeris_type": 0,
        "meta_classification_type": "U",
        "meta_norad_cat_id": 39155,
        "meta_element_set_no": 999,
        "meta_rev_at_epoch": 9854,
        "meta_bstar": 0,
        "meta_mean_motion_dot": 2e-08,
        "meta_mean_motion_ddot": 0,
        "tle_line1": "1 39155U 13019A   25357.87648671  .00000002  00000+0  00000+0 0  9996",
        "tle_line2": "2 39155  65.3190  79.4928 0025006 230.5113 129.3147  2.13103232 98546"
      },
      "geometry": {
        "type": "Point",
        "coordinates": [
          -89.43431101453612,
          -22.721615268491718
        ]
      }
    },
    {
      "type": "Feature",
      "properties": {
        "norad_id": 39166,
        "name": "GPS BIIF-4  (PRN 27)",
        "group": "gnss",
        "lat": -38.08753607817668,
        "lon": -117.67871179229572,
        "alt_km": 20231.79228754946,
        "timestamp": "2025-12-24T14:43:29.244705+00:00",
        "meta_object_name": "GPS BIIF-4  (PRN 27)",
        "meta_object_id": "2013-023A",
        "meta_epoch": "2025-12-24T04:22:45.403680",
        "meta_mean_motion": 2.0056459,
        "meta_eccentricity": 0.01385961,
        "meta_inclination": 54.6422,
        "meta_ra_of_asc_node": 276.1031,
        "meta_arg_of_pericenter": 48.7604,
        "meta_mean_anomaly": 312.4729,
        "meta_ephemeris_type": 0,
        "meta_classification_type": "U",
        "meta_norad_cat_id": 39166,
        "meta_element_set_no": 999,
        "meta_rev_at_epoch": 9237,
        "meta_bstar": 0,
        "meta_mean_motion_dot": -1.6e-07,
        "meta_mean_motion_ddot": 0,
        "tle_line1": "1 39166U 13023A   25358.18246995 -.00000016  00000+0  00000+0 0  9997",
        "tle_line2": "2 39166  54.6422 276.1031 0138596  48.7604 312.4729  2.00564590 92371"
      },
      "geometry": {
        "type": "Point",
        "coordinates": [
          -117.67871179229572,
          -38.08753607817668
        ]
      }
    },
    {
      "type": "Feature",
      "properties": {
        "norad_id": 39199,
        "name": "IRNSS-1A",
        "group": "gnss",
        "lat": -29.062672385916564,
        "lon": 14.863920375812231,
        "alt_km": 35785.53717359818,
        "timestamp": "2025-12-24T14:43:29.244717+00:00",
        "meta_object_name": "IRNSS-1A",
        "meta_object_id": "2013-034A",
        "meta_epoch": "2025-12-23T18:31:50.766240",
        "meta_mean_motion": 1.00273261,
        "meta_eccentricity": 0.00244469,
        "meta_inclination": 35.3346,
        "meta_ra_of_asc_node": 66.3922,
        "meta_arg_of_pericenter": 214.961,
        "meta_mean_anomaly": 143.9705,
        "meta_ephemeris_type": 0,
        "meta_classification_type": "U",
        "meta_norad_cat_id": 39199,
        "meta_element_set_no": 999,
        "meta_rev_at_epoch": 4560,
        "meta_bstar": 0,
        "meta_mean_motion_dot": 7.8e-07,
        "meta_mean_motion_ddot": 0,
        "tle_line1": "1 39199U 13034A   25357.77211535  .00000078  00000+0  00000+0 0  9998",
        "tle_line2": "2 39199  35.3346  66.3922 0024446 214.9610 143.9705  1.00273261 45604"
      },
      "geometry": {
        "type": "Point",
        "coordinates": [
          14.863920375812231,
          -29.062672385916564
        ]
      }
    },
    {
      "type": "Feature",
      "properties": {
        "norad_id": 39533,
        "name": "GPS BIIF-5  (PRN 30)",
        "group": "gnss",
        "lat": -34.216619744055315,
        "lon": 126.32748686222098,
        "alt_km": 20185.148559219462,
        "timestamp": "2025-12-24T14:43:29.244729+00:00",
        "meta_object_name": "GPS BIIF-5  (PRN 30)",
        "meta_object_id": "2014-008A",
        "meta_epoch": "2025-12-23T16:16:25.020768",
        "meta_mean_motion": 2.00548852,
        "meta_eccentricity": 0.00795532,
        "meta_inclination": 53.5993,
        "meta_ra_of_asc_node": 156.4877,
        "meta_arg_of_pericenter": 225.9161,
        "meta_mean_anomaly": 133.4108,
        "meta_ephemeris_type": 0,
        "meta_classification_type": "U",
        "meta_norad_cat_id": 39533,
        "meta_element_set_no": 999,
        "meta_rev_at_epoch": 8616,
        "meta_bstar": 0,
        "meta_mean_motion_dot": 8.2e-07,
        "meta_mean_motion_ddot": 0,
        "tle_line1": "1 39533U 14008A   25357.67806737  .00000082  00000+0  00000+0 0  9990",
        "tle_line2": "2 39533  53.5993 156.4877 0079553 225.9161 133.4108  2.00548852 86167"
      },
      "geometry": {
        "type": "Point",
        "coordinates": [
          126.32748686222098,
          -34.216619744055315
        ]
      }
    }
  ]
}